[
    {
        "Altitude(m)": 604969.0890232243,
        "Argument of Periapsis(deg)": 0.0,
        "Eccentricity": 0.0,
        "Inclination(deg)": 60.0,
        "Latitude(deg)": -0.092566225234458,
        "Longitude(deg)": 49.9775277458633,
        "Mean Anomaly(deg)": 0.0,
        "RAAN(deg)": 150.0,
        "Satellite Name": "Test1 660",
        "Satellite Number": 660,
        "Semi-Major Axis(m)": 6980739.136638005,
        "Time(s)": 0
    },
    {
        "Altitude(m)": 604900.0291820858,
        "Argument of Periapsis(deg)": 0.00010418945913296404,
        "Eccentricity": 0.0,
        "Inclination(deg)": 60.0,
        "Latitude(deg)": 0.44786008198220484,
        "Longitude(deg)": 50.245649956105545,
        "Mean Anomaly(deg)": 0.6201061454618275,
        "RAAN(deg)": 149.99957995086027,
        "Satellite Name": "Test1 660",
        "Satellite Number": 660,
        "Semi-Major Axis(m)": 6980739.136638005,
        "Time(s)": 10
    }
]